[{"OBJECT_NAME":"ASRTU-1 (AO-123)","OBJECT_ID":"2024-199AY","EPOCH":"2026-03-09T22:36:42.151392","MEAN_MOTION":15.34070057,"ECCENTRICITY":0.0012786,"INCLINATION":97.3152,"RA_OF_ASC_NODE":298.5256,"ARG_OF_PERICENTER":309.3392,"MEAN_ANOMALY":50.6717,"EPHEMERIS_TYPE":0,"CLASSIFICATION_TYPE":"U","NORAD_CAT_ID":61781,"ELEMENT_SET_NO":999,"REV_AT_EPOCH":11870,"BSTAR":0.00032267684,"MEAN_MOTION_DOT":0.00010589,"MEAN_MOTION_DDOT":0},{"OBJECT_NAME":"STARLINK-35452","OBJECT_ID":"2025-236U","EPOCH":"2026-03-09T08:51:25.444800","MEAN_MOTION":15.30188556,"ECCENTRICITY":0.00013357,"INCLINATION":53.159,"RA_OF_ASC_NODE":105.4911,"ARG_OF_PERICENTER":87.3218,"MEAN_ANOMALY":272.7936,"EPHEMERIS_TYPE":0,"CLASSIFICATION_TYPE":"U","NORAD_CAT_ID":66104,"ELEMENT_SET_NO":999,"REV_AT_EPOCH":2289,"BSTAR":0.00034143843,"MEAN_MOTION_DOT":9.763e-5,"MEAN_MOTION_DDOT":0}]
